FENGYUN 1C DEB          
1 33688U 99025DFZ 17345.83144010  .00000819  00000-0  40491-3 0  9993
2 33688  99.3881 206.0369 0078652 307.4770  51.9268 14.18869242499457
